STARLINK-32461          
1 61701U 24195Q   26068.50507758  .00000595  00000+0  32239-4 0  9996
2 61701  53.1612 156.1840 0001184  89.5143 270.5993 15.30188031 77159
2025-313BE              
1 67482U 25313BE  26068.69721505  .00077178  00000+0  26504-2 0  9996
2 67482  97.3989 145.3568 0007208 335.3714  24.7181 15.29801687  7972
